OBJECT_NAME,OBJECT_ID,EPOCH,MEAN_MOTION,ECCENTRICITY,INCLINATION,RA_OF_ASC_NODE,ARG_OF_PERICENTER,MEAN_ANOMALY,EPHEMERIS_TYPE,CLASSIFICATION_TYPE,NORAD_CAT_ID,ELEMENT_SET_NO,REV_AT_EPOCH,BSTAR,MEAN_MOTION_DOT,MEAN_MOTION_DDOT
GRBBETA,2024-128C,2026-05-17T11:43:58.019808,15.06365563,.00448127,61.9901,323.9502,128.3151,232.1985,0,U,60237,999,10164,.19525748E-3,.2731E-4,0
TRANSPORTER-11 OBJECT A,2024-149A,2026-05-17T11:13:10.977888,15.32371706,.00025408,97.3736,217.5052,1.0000,359.1246,0,U,60468,999,9735,.19274669E-3,.5946E-4,0
WARATAH SEED-1,2024-149B,2026-05-17T11:35:13.220160,15.35119754,.00013809,97.3694,218.0480,33.2727,326.8603,0,U,60469,999,9740,.27864381E-3,.9418E-4,0
PHISAT 2,2024-149C,2026-05-17T10:55:59.632320,15.30577011,.00019199,97.3762,216.8538,49.6222,310.5186,0,U,60470,999,9729,.16762113E-3,.4878E-4,0
LEMUR-2-TOMATOKECHUP,2024-149D,2026-05-17T11:34:22.321056,15.35350613,.0001582,97.3801,219.4670,43.5831,316.5537,0,U,60471,999,9745,.22589765E-3,.7675E-4,0
CONNECTA IOT-1,2024-149E,2026-05-17T13:15:47.127456,15.23283325,.00029783,97.3764,214.3664,58.2307,301.9220,0,U,60472,999,9713,.12197906E-3,.2822E-4,0
LOPEN,2024-149F,2026-05-17T12:14:45.407328,15.38742596,.00018417,97.3782,220.6608,61.0523,299.0907,0,U,60473,999,9754,.27045768E-3,.10276E-3,0
ROCK,2024-149G,2026-05-17T11:55:23.891520,15.38746484,.00018607,97.3778,220.6644,50.9849,309.1562,0,U,60474,999,9754,.26046976E-3,.9894E-4,0
CONNECTA IOT-3,2024-149H,2026-05-17T10:37:43.152384,15.23293648,.00036317,97.3739,214.0207,41.9673,318.1842,0,U,60475,999,9712,.1262399E-3,.2924E-4,0
QUBE,2024-149J,2026-05-17T12:03:19.338624,15.45703500,.00012802,97.3780,223.3804,30.4029,329.7294,0,U,60476,999,9772,.32134308E-3,.15437E-3,0
WREN-1,2024-149L,2026-05-17T05:21:25.784640,15.40278958,.00042021,97.3770,221.0416,34.1243,326.0272,0,U,60478,999,9755,.35814586E-3,.14349E-3,0
TOMORROW-S1,2024-149M,2026-05-17T10:44:10.949280,15.32255738,.00027597,97.3753,218.0273,34.3436,325.7984,0,U,60479,999,9738,.16972429E-3,.5207E-4,0
FLOCK 4BE-18,2024-149N,2026-05-17T12:03:56.746368,15.40813092,.0003382,97.3733,220.9364,31.9486,328.1965,0,U,60480,999,9758,.28727869E-3,.11693E-3,0
FLOCK 4BE-7,2024-149P,2026-05-17T11:26:26.308896,15.38982035,.00028091,97.3762,220.3159,43.2155,316.9310,0,U,60481,999,9752,.38999648E-3,.1498E-3,0
TOMORROW-S2,2024-149T,2026-05-17T11:28:46.799616,15.32270177,.00035608,97.3821,218.5180,50.2634,309.8921,0,U,60485,999,9738,.17882591E-3,.5494E-4,0
FLOCK 4BE-36,2024-149U,2026-05-17T05:34:16.342176,15.41696726,.00037965,97.3747,221.3144,44.2871,315.8679,0,U,60486,999,9758,.27632465E-3,.1158E-3,0
FLOCK 4BE-25,2024-149V,2026-05-17T04:35:38.436576,15.37975908,.00024371,97.3803,220.1519,53.7627,306.3843,0,U,60487,999,9747,.27151777E-3,.10062E-3,0
FLOCK 4BE-31,2024-149W,2026-05-17T05:21:28.824192,15.42836186,.00029136,97.3805,222.0808,55.9542,304.1982,0,U,60488,999,9760,.33289428E-3,.14514E-3,0
FLOCK 4BE-20,2024-149X,2026-05-17T04:54:08.286048,15.37195023,.00038149,97.3704,219.1231,42.9213,317.2328,0,U,60489,999,9745,.24955074E-3,.901E-4,0
FLOCK 4BE-23,2024-149Y,2026-05-17T04:29:25.903104,15.36835414,.00038306,97.3785,219.4647,51.1662,308.9924,0,U,60490,999,9743,.2803778E-3,.10017E-3,0
FLOCK 4BE-15,2024-149Z,2026-05-17T14:45:26.413920,15.52970693,.00032509,97.3702,222.0025,135.2425,224.9090,0,U,60491,999,9767,.11639091E-2,.72967E-3,0
FLOCK 4BE-17,2024-149AA,2026-05-17T11:20:25.273536,15.38825377,.00030091,97.3778,220.6220,42.8809,317.2671,0,U,60492,999,9753,.28934861E-3,.11031E-3,0
NUSAT-50 (NANCY ROMAN),2024-149AB,2026-05-17T13:14:29.069376,15.29282745,.00020201,97.3791,219.0342,327.0300,33.0814,0,U,60493,999,9744,.22104336E-3,.6204E-4,0
FLOCK 4BE-22,2024-149AC,2026-05-17T11:32:56.453280,15.40180979,.00037761,97.3736,220.7751,45.8588,314.2968,0,U,60494,999,9757,.26887656E-3,.10712E-3,0
FLOCK 4BE-34,2024-149AD,2026-05-17T11:58:02.997984,15.40215148,.00041664,97.3783,221.5950,55.6336,304.5304,0,U,60495,999,9760,.24542076E-3,.978E-4,0
TYCHE,2024-149AE,2026-05-17T13:49:42.161952,15.25803486,.00032718,97.3757,215.8029,54.8574,305.2971,0,U,60496,999,9723,.12226565E-3,.3053E-4,0
FLOCK 4BE-32,2024-149AF,2026-05-17T11:38:59.984736,15.41036981,.00039511,97.3725,221.1074,51.5342,308.6258,0,U,60497,999,9760,.30227352E-3,.12402E-3,0
NUSAT-48 (HENRIETTA LEAVITT),2024-149AG,2026-05-17T11:36:11.350080,15.29897968,.00045461,97.3909,219.1392,44.4802,315.6803,0,U,60498,999,9744,.23421026E-3,.6706E-4,0
FLOCK 4BE-30,2024-149AH,2026-05-17T10:49:49.932768,15.49301029,.00020378,97.3791,222.1166,163.8063,196.3254,0,U,60499,999,9700,.12428771E-2,.68365E-3,0
